CCSDS_OMM_VERS = 2.0
CREATION_DATE  = 
ORIGINATOR     = 

OBJECT_NAME    = SL-14 R/B
OBJECT_ID      = 1991-042B
CENTER_NAME    = EARTH
REF_FRAME      = TEME
TIME_SYSTEM    = UTC
MEAN_ELEMENT_THEORY = SGP/SGP4

EPOCH          = 2026-02-23T10:36:45.921024
MEAN_MOTION    = 14.81813495
ECCENTRICITY   = .0015605
INCLINATION    = 82.4898
RA_OF_ASC_NODE = 233.5446
ARG_OF_PERICENTER = 289.7664
MEAN_ANOMALY   = 70.1867

EPHEMERIS_TYPE = 0
CLASSIFICATION_TYPE = U
NORAD_CAT_ID   = 21423
ELEMENT_SET_NO = 999
REV_AT_EPOCH   = 85096
BSTAR          = .54915707E-4
MEAN_MOTION_DOT = .457E-5
MEAN_MOTION_DDOT = 0

CCSDS_OMM_VERS = 2.0
CREATION_DATE  = 
ORIGINATOR     = 

OBJECT_NAME    = ERS-1
OBJECT_ID      = 1991-050A
CENTER_NAME    = EARTH
REF_FRAME      = TEME
TIME_SYSTEM    = UTC
MEAN_ELEMENT_THEORY = SGP/SGP4

EPOCH          = 2026-02-23T10:44:25.493856
MEAN_MOTION    = 14.39436842
ECCENTRICITY   = .00309849
INCLINATION    = 98.7891
RA_OF_ASC_NODE = 72.3240
ARG_OF_PERICENTER = 243.6355
MEAN_ANOMALY   = 116.1650

EPHEMERIS_TYPE = 0
CLASSIFICATION_TYPE = U
NORAD_CAT_ID   = 21574
ELEMENT_SET_NO = 999
REV_AT_EPOCH   = 81368
BSTAR          = .11262962E-3
MEAN_MOTION_DOT = .306E-5
MEAN_MOTION_DDOT = 0

CCSDS_OMM_VERS = 2.0
CREATION_DATE  = 
ORIGINATOR     = 

OBJECT_NAME    = ARIANE 40 R/B
OBJECT_ID      = 1991-050F
CENTER_NAME    = EARTH
REF_FRAME      = TEME
TIME_SYSTEM    = UTC
MEAN_ELEMENT_THEORY = SGP/SGP4

EPOCH          = 2026-02-23T14:26:26.063520
MEAN_MOTION    = 14.42882145
ECCENTRICITY   = .00043293
INCLINATION    = 98.2045
RA_OF_ASC_NODE = 107.3649
ARG_OF_PERICENTER = 111.7138
MEAN_ANOMALY   = 248.4514

EPHEMERIS_TYPE = 0
CLASSIFICATION_TYPE = U
NORAD_CAT_ID   = 21610
ELEMENT_SET_NO = 999
REV_AT_EPOCH   = 81696
BSTAR          = .91878549E-4
MEAN_MOTION_DOT = .265E-5
MEAN_MOTION_DDOT = 0

CCSDS_OMM_VERS = 2.0
CREATION_DATE  = 
ORIGINATOR     = 

OBJECT_NAME    = INTERCOSMOS 25
OBJECT_ID      = 1991-086A
CENTER_NAME    = EARTH
REF_FRAME      = TEME
TIME_SYSTEM    = UTC
MEAN_ELEMENT_THEORY = SGP/SGP4

EPOCH          = 2026-02-23T10:59:03.758496
MEAN_MOTION    = 12.11954758
ECCENTRICITY   = .14870829
INCLINATION    = 82.6074
RA_OF_ASC_NODE = 318.6088
ARG_OF_PERICENTER = 147.5904
MEAN_ANOMALY   = 222.6028

EPHEMERIS_TYPE = 0
CLASSIFICATION_TYPE = U
NORAD_CAT_ID   = 21819
ELEMENT_SET_NO = 999
REV_AT_EPOCH   = 49496
BSTAR          = .23646935E-3
MEAN_MOTION_DOT = .1236E-4
MEAN_MOTION_DDOT = 0

CCSDS_OMM_VERS = 2.0
CREATION_DATE  = 
ORIGINATOR     = 

OBJECT_NAME    = SL-8 R/B
OBJECT_ID      = 1992-008B
CENTER_NAME    = EARTH
REF_FRAME      = TEME
TIME_SYSTEM    = UTC
MEAN_ELEMENT_THEORY = SGP/SGP4

EPOCH          = 2026-02-23T14:35:50.974368
MEAN_MOTION    = 13.75969909
ECCENTRICITY   = .00347799
INCLINATION    = 82.9238
RA_OF_ASC_NODE = 278.2554
ARG_OF_PERICENTER = 172.0067
MEAN_ANOMALY   = 217.0497

EPHEMERIS_TYPE = 0
CLASSIFICATION_TYPE = U
NORAD_CAT_ID   = 21876
ELEMENT_SET_NO = 999
REV_AT_EPOCH   = 70748
BSTAR          = -.6991827E-5
MEAN_MOTION_DOT = .9E-7
MEAN_MOTION_DDOT = 0

CCSDS_OMM_VERS = 2.0
CREATION_DATE  = 
ORIGINATOR     = 

OBJECT_NAME    = SL-8 R/B
OBJECT_ID      = 1992-020B
CENTER_NAME    = EARTH
REF_FRAME      = TEME
TIME_SYSTEM    = UTC
MEAN_ELEMENT_THEORY = SGP/SGP4

EPOCH          = 2026-02-23T13:41:44.306880
MEAN_MOTION    = 13.75547666
ECCENTRICITY   = .00283231
INCLINATION    = 82.9344
RA_OF_ASC_NODE = 164.2412
ARG_OF_PERICENTER = 339.6215
MEAN_ANOMALY   = 31.2645

EPHEMERIS_TYPE = 0
CLASSIFICATION_TYPE = U
NORAD_CAT_ID   = 21938
ELEMENT_SET_NO = 999
REV_AT_EPOCH   = 69919
BSTAR          = .83690242E-4
MEAN_MOTION_DOT = .96E-6
MEAN_MOTION_DDOT = 0

CCSDS_OMM_VERS = 2.0
CREATION_DATE  = 
ORIGINATOR     = 

OBJECT_NAME    = USA 81
OBJECT_ID      = 1992-023A
CENTER_NAME    = EARTH
REF_FRAME      = TEME
TIME_SYSTEM    = UTC
MEAN_ELEMENT_THEORY = SGP/SGP4

EPOCH          = 2026-02-23T11:27:49.901760
MEAN_MOTION    = 14.32362672
ECCENTRICITY   = .0002729
INCLINATION    = 85.0111
RA_OF_ASC_NODE = 139.6375
ARG_OF_PERICENTER = 89.9218
MEAN_ANOMALY   = 270.2288

EPHEMERIS_TYPE = 0
CLASSIFICATION_TYPE = U
NORAD_CAT_ID   = 21949
ELEMENT_SET_NO = 999
REV_AT_EPOCH   = 9275
BSTAR          = .63424468E-4
MEAN_MOTION_DOT = .191E-5
MEAN_MOTION_DDOT = 0

CCSDS_OMM_VERS = 2.0
CREATION_DATE  = 
ORIGINATOR     = 

OBJECT_NAME    = COSMOS 2219
OBJECT_ID      = 1992-076A
CENTER_NAME    = EARTH
REF_FRAME      = TEME
TIME_SYSTEM    = UTC
MEAN_ELEMENT_THEORY = SGP/SGP4

EPOCH          = 2026-02-23T10:39:29.503008
MEAN_MOTION    = 14.14082636
ECCENTRICITY   = .00196672
INCLINATION    = 71.0594
RA_OF_ASC_NODE = 47.8476
ARG_OF_PERICENTER = 226.0843
MEAN_ANOMALY   = 133.8657

EPHEMERIS_TYPE = 0
CLASSIFICATION_TYPE = U
NORAD_CAT_ID   = 22219
ELEMENT_SET_NO = 999
REV_AT_EPOCH   = 71636
BSTAR          = .20747852E-3
MEAN_MOTION_DOT = .348E-5
MEAN_MOTION_DDOT = 0

CCSDS_OMM_VERS = 2.0
CREATION_DATE  = 
ORIGINATOR     = 

OBJECT_NAME    = SL-16 R/B
OBJECT_ID      = 1992-076B
CENTER_NAME    = EARTH
REF_FRAME      = TEME
TIME_SYSTEM    = UTC
MEAN_ELEMENT_THEORY = SGP/SGP4

EPOCH          = 2026-02-23T10:17:42.605376
MEAN_MOTION    = 14.16855682
ECCENTRICITY   = .00109578
INCLINATION    = 70.9981
RA_OF_ASC_NODE = 218.4121
ARG_OF_PERICENTER = 122.5435
MEAN_ANOMALY   = 265.6563

EPHEMERIS_TYPE = 0
CLASSIFICATION_TYPE = U
NORAD_CAT_ID   = 22220
ELEMENT_SET_NO = 999
REV_AT_EPOCH   = 71981
BSTAR          = .13244741E-3
MEAN_MOTION_DOT = .218E-5
MEAN_MOTION_DDOT = 0

CCSDS_OMM_VERS = 2.0
CREATION_DATE  = 
ORIGINATOR     = 

OBJECT_NAME    = COSMOS 2221
OBJECT_ID      = 1992-080A
CENTER_NAME    = EARTH
REF_FRAME      = TEME
TIME_SYSTEM    = UTC
MEAN_ELEMENT_THEORY = SGP/SGP4

EPOCH          = 2026-02-23T14:13:32.574432
MEAN_MOTION    = 14.96141472
ECCENTRICITY   = .00129779
INCLINATION    = 82.5032
RA_OF_ASC_NODE = 292.5847
ARG_OF_PERICENTER = 237.6463
MEAN_ANOMALY   = 122.3503

EPHEMERIS_TYPE = 0
CLASSIFICATION_TYPE = U
NORAD_CAT_ID   = 22236
ELEMENT_SET_NO = 999
REV_AT_EPOCH   = 77868
BSTAR          = .15198819E-3
MEAN_MOTION_DOT = .1738E-4
MEAN_MOTION_DDOT = 0

CCSDS_OMM_VERS = 2.0
CREATION_DATE  = 
ORIGINATOR     = 

OBJECT_NAME    = SL-16 R/B
OBJECT_ID      = 1992-093B
CENTER_NAME    = EARTH
REF_FRAME      = TEME
TIME_SYSTEM    = UTC
MEAN_ELEMENT_THEORY = SGP/SGP4

EPOCH          = 2026-02-23T07:44:50.227584
MEAN_MOTION    = 14.15448209
ECCENTRICITY   = .0005847
INCLINATION    = 71.0223
RA_OF_ASC_NODE = 34.4245
ARG_OF_PERICENTER = 309.2581
MEAN_ANOMALY   = 50.8023

EPHEMERIS_TYPE = 0
CLASSIFICATION_TYPE = U
NORAD_CAT_ID   = 22285
ELEMENT_SET_NO = 999
REV_AT_EPOCH   = 71112
BSTAR          = .13371081E-3
MEAN_MOTION_DOT = .214E-5
MEAN_MOTION_DDOT = 0

CCSDS_OMM_VERS = 2.0
CREATION_DATE  = 
ORIGINATOR     = 

OBJECT_NAME    = COSMOS 2228
OBJECT_ID      = 1992-094A
CENTER_NAME    = EARTH
REF_FRAME      = TEME
TIME_SYSTEM    = UTC
MEAN_ELEMENT_THEORY = SGP/SGP4

EPOCH          = 2026-02-23T13:14:12.128064
MEAN_MOTION    = 14.97114171
ECCENTRICITY   = .00178556
INCLINATION    = 82.5147
RA_OF_ASC_NODE = 250.8498
ARG_OF_PERICENTER = 354.3195
MEAN_ANOMALY   = 5.7822

EPHEMERIS_TYPE = 0
CLASSIFICATION_TYPE = U
NORAD_CAT_ID   = 22286
ELEMENT_SET_NO = 999
REV_AT_EPOCH   = 77394
BSTAR          = .20903942E-3
MEAN_MOTION_DOT = .2445E-4
MEAN_MOTION_DDOT = 0

