SL-14 R/B               
1 21423U 91042B   26054.44219816  .00000457  00000+0  54916-4 0  9994
2 21423  82.4898 233.5446 0015605 289.7664  70.1867 14.81813495850960
ERS-1                   
1 21574U 91050A   26054.44751729  .00000306  00000+0  11263-3 0  9994
2 21574  98.7891  72.3240 0030984 243.6355 116.1650 14.39436842813683
ARIANE 40 R/B           
1 21610U 91050F   26054.60169055  .00000265  00000+0  91879-4 0  9994
2 21610  98.2045 107.3649 0004329 111.7138 248.4514 14.42882145816967
INTERCOSMOS 25          
1 21819U 91086A   26054.45768239  .00001236  00000+0  23647-3 0  9992
2 21819  82.6074 318.6088 1487082 147.5904 222.6028 12.11954758494961
SL-8 R/B                
1 21876U 92008B   26054.60822887  .00000009  00000+0 -69918-5 0  9998
2 21876  82.9238 278.2554 0034779 172.0067 217.0497 13.75969909707488
SL-8 R/B                
1 21938U 92020B   26054.57065170  .00000096  00000+0  83690-4 0  9998
2 21938  82.9344 164.2412 0028323 339.6215  31.2645 13.75547666699197
USA 81                  
1 21949U 92023A   26054.47766090  .00000191  00000+0  63424-4 0  9990
2 21949  85.0111 139.6375 0002729  89.9218 270.2288 14.32362672 92752
COSMOS 2219             
1 22219U 92076A   26054.44409147  .00000348  00000+0  20748-3 0  9998
2 22219  71.0594  47.8476 0019667 226.0843 133.8657 14.14082636716365
SL-16 R/B               
1 22220U 92076B   26054.42896534  .00000218  00000+0  13245-3 0  9998
2 22220  70.9981 218.4121 0010957 122.5435 265.6563 14.16855682719812
COSMOS 2221             
1 22236U 92080A   26054.59273813  .00001738  00000+0  15199-3 0  9995
2 22236  82.5032 292.5847 0012977 237.6463 122.3503 14.96141472778682
SL-16 R/B               
1 22285U 92093B   26054.32280356  .00000214  00000+0  13371-3 0  9992
2 22285  71.0223  34.4245 0005847 309.2581  50.8023 14.15448209711128
COSMOS 2228             
1 22286U 92094A   26054.55152926  .00002445  00000+0  20904-3 0  9998
2 22286  82.5147 250.8498 0017855 354.3195   5.7822 14.97114171773941
